STARLINK-1720
1 16675C 20073F   21326.15016450  .00006402  00000-0  42888-3 0  3265
2 16675  53.0548  83.0735 0001504  66.3663 353.2459 15.06395490    15
